{
    "links": {
        "self": "http://www.neowsapp.com/rest/v1/neo/3695295?api_key=iIulBulltgU6a56xZRHN4H3l9WmuAYTsLGpBGhQ2"
    },
    "id": "3695295",
    "neo_reference_id": "3695295",
    "name": "(2014 UL175)",
    "designation": "2014 UL175",
    "nasa_jpl_url": "http://ssd.jpl.nasa.gov/sbdb.cgi?sstr=3695295",
    "absolute_magnitude_h": 26.5,
    "estimated_diameter": {
        "kilometers": {
            "estimated_diameter_min": 0.0133215567,
            "estimated_diameter_max": 0.0297879063
        },
        "meters": {
            "estimated_diameter_min": 13.3215566698,
            "estimated_diameter_max": 29.7879062798
        },
        "miles": {
            "estimated_diameter_min": 0.008277629,
            "estimated_diameter_max": 0.0185093411
        },
        "feet": {
            "estimated_diameter_min": 43.7058959846,
            "estimated_diameter_max": 97.7293544391
        }
    },
    "is_potentially_hazardous_asteroid": false,
    "close_approach_data": [
        {
            "close_approach_date": "2008-05-01",
            "close_approach_date_full": "2008-May-01 00:34",
            "epoch_date_close_approach": 1209602040000,
            "relative_velocity": {
                "kilometers_per_second": "10.4742390869",
                "kilometers_per_hour": "37707.2607130081",
                "miles_per_hour": "23429.8254135911"
            },
            "miss_distance": {
                "astronomical": "0.0691446273",
                "lunar": "26.8972600197",
                "kilometers": "10343888.966023851",
                "miles": "6427394.5612411038"
            },
            "orbiting_body": "Earth"
        },
        {
            "close_approach_date": "2014-10-24",
            "close_approach_date_full": "2014-Oct-24 03:12",
            "epoch_date_close_approach": 1414120320000,
            "relative_velocity": {
                "kilometers_per_second": "11.8146172863",
                "kilometers_per_hour": "42532.6222305623",
                "miles_per_hour": "26428.1174076513"
            },
            "miss_distance": {
                "astronomical": "0.0081472915",
                "lunar": "3.1692963935",
                "kilometers": "1218817.454669105",
                "miles": "757338.048099449"
            },
            "orbiting_body": "Moon"
        },
        {
            "close_approach_date": "2014-10-24",
            "close_approach_date_full": "2014-Oct-24 10:23",
            "epoch_date_close_approach": 1414146180000,
            "relative_velocity": {
                "kilometers_per_second": "11.9351058592",
                "kilometers_per_hour": "42966.3810930484",
                "miles_per_hour": "26697.6382964"
            },
            "miss_distance": {
                "astronomical": "0.0065163129",
                "lunar": "2.5348457181",
                "kilometers": "974826.530093523",
                "miles": "605729.1177676974"
            },
            "orbiting_body": "Earth"
        },
        {
            "close_approach_date": "2106-10-28",
            "close_approach_date_full": "2106-Oct-28 15:15",
            "epoch_date_close_approach": 4317722100000,
            "relative_velocity": {
                "kilometers_per_second": "13.3061944378",
                "kilometers_per_hour": "47902.2999761254",
                "miles_per_hour": "29764.626337943"
            },
            "miss_distance": {
                "astronomical": "0.0562294746",
                "lunar": "21.8732656194",
                "kilometers": "8411809.631379102",
                "miles": "5226856.1323995276"
            },
            "orbiting_body": "Earth"
        }
    ],
    "orbital_data": {
        "orbit_id": "3",
        "orbit_determination_date": "2017-04-06 08:37:43",
        "first_observation_date": "2014-10-29",
        "last_observation_date": "2014-10-30",
        "data_arc_in_days": 1,
        "observations_used": 14,
        "orbit_uncertainty": "8",
        "minimum_orbit_intersection": ".00652091",
        "jupiter_tisserand_invariant": "5.410",
        "epoch_osculation": "2456960.5",
        "eccentricity": ".3073778479420424",
        "semi_major_axis": "1.14538524802118",
        "inclination": "13.90050158305939",
        "ascending_node_longitude": "31.93067833708773",
        "orbital_period": "447.7399071367002",
        "perihelion_distance": ".7933191954198673",
        "perihelion_argument": "275.9558501077322",
        "aphelion_distance": "1.497451300622493",
        "perihelion_time": "2456893.531304207758",
        "mean_anomaly": "53.84539126606475",
        "mean_motion": ".8040382245625647",
        "equinox": "J2000",
        "orbit_class": {
            "orbit_class_type": "APO",
            "orbit_class_description": "Near-Earth asteroid orbits which cross the Earth’s orbit similar to that of 1862 Apollo",
            "orbit_class_range": "a (semi-major axis) > 1.0 AU; q (perihelion) < 1.017 AU"
        }
    },
    "is_sentry_object": false
}